FENGYUN 1C DEB          
1 30063U 99025PQ  26088.18244971  .00000154  00000+0  99227-4 0  9999
2 30063  98.5370  67.4156 0031988 187.5551 184.5595 14.15654539991713
FENGYUN 1C DEB          
1 30064U 99025PR  26087.50636854  .00000273  00000+0  16169-3 0  9995
2 30064  98.6599 100.3543 0065908 168.3809 344.4106 14.14354083990003
FENGYUN 1C DEB          
1 30065U 99025PS  26088.20006605  .00000188  00000+0  18072-3 0  9999
2 30065  98.7007  58.5779 0132031 100.5950 261.0111 13.86962511971470
FENGYUN 1C DEB          
1 30066U 99025PT  26087.93638963  .00000356  00000+0  17846-3 0  9992
2 30066  98.6447  80.7302 0116838 316.1340  96.3974 14.19194730993435
FENGYUN 1C DEB          
1 30067U 99025PU  26088.22441338  .00001567  00000+0  41155-3 0  9999
2 30067  98.7554 342.4846 0151607  59.3370  56.6596 14.44039144  7327
FENGYUN 1C DEB          
1 30068U 99025PV  26088.21209094  .00000461  00000+0  23117-3 0  9990
2 30068  98.7483  78.4369 0190842  46.0498 315.6241 14.12129531988466
FENGYUN 1C DEB          
1 30069U 99025PW  26087.93884544  .00000243  00000+0  17461-3 0  9991
2 30069  98.8159  71.7441 0049903 114.1365 301.4956 14.05330188983382
FENGYUN 1C DEB          
1 30070U 99025PX  26087.61046047  .00003647  00000+0  12516-2 0  9992
2 30070  98.2697 144.1223 0324967  14.5821 138.2414 14.10944600973711
FENGYUN 1C DEB          
1 30071U 99025PY  26088.00724562  .00012528  00000+0  29121-2 0  9990
2 30071  98.6538 195.7456 0039720 144.7367 270.6436 14.54570926997705
FENGYUN 1C DEB          
1 30072U 99025PZ  26087.66721167  .00008071  00000+0  25262-2 0  9990
2 30072  99.0785 247.0720 0054066 320.8464  38.8816 14.40101385986949
FENGYUN 1C DEB          
1 30073U 99025QA  26087.44402563  .00003453  00000+0  16407-2 0  9993
2 30073  99.4209  72.0975 0053422 344.1997 167.1602 14.19429555984246
FENGYUN 1C DEB          
1 30074U 99025QB  26086.91165328  .00002571  00000+0  13322-2 0  9993
2 30074  99.1170 160.1845 0096252 214.3280 145.1648 14.13428490981476
FENGYUN 1C DEB          
1 30075U 99025QC  26088.09356205  .00000209  00000+0  19191-3 0  9998
2 30075  99.3415 144.4180 0089989 250.1397 138.9290 13.92574043975450
FENGYUN 1C DEB          
1 30076U 99025QD  26087.95289012  .00000239  00000+0  25777-3 0  9994
2 30076  99.2509  76.6392 0174794 173.5644 212.2025 13.76375619963557
FENGYUN 1C DEB          
1 30077U 99025QE  26088.00126199  .00000028  00000+0  42138-4 0  9995
2 30077  98.7531 105.3164 0020821 327.6828  85.8191 14.07095502986076
FENGYUN 1C DEB          
1 30078U 99025QF  26088.20497362  .00004582  00000+0  19932-2 0  9994
2 30078  98.8234 168.4359 0048867 334.0645  87.9947 14.23906839986280
