[{"OBJECT_NAME":"FENGYUN 1C DEB","OBJECT_ID":"1999-025PQ","EPOCH":"2026-03-29T04:22:43.654944","MEAN_MOTION":14.15654539,"ECCENTRICITY":0.0031988,"INCLINATION":98.537,"RA_OF_ASC_NODE":67.4156,"ARG_OF_PERICENTER":187.5551,"MEAN_ANOMALY":184.5595,"EPHEMERIS_TYPE":0,"CLASSIFICATION_TYPE":"U","NORAD_CAT_ID":30063,"ELEMENT_SET_NO":999,"REV_AT_EPOCH":99171,"BSTAR":9.9227e-5,"MEAN_MOTION_DOT":1.54e-6,"MEAN_MOTION_DDOT":0},{"OBJECT_NAME":"FENGYUN 1C DEB","OBJECT_ID":"1999-025PR","EPOCH":"2026-03-28T12:09:10.241856","MEAN_MOTION":14.14354083,"ECCENTRICITY":0.0065908,"INCLINATION":98.6599,"RA_OF_ASC_NODE":100.3543,"ARG_OF_PERICENTER":168.3809,"MEAN_ANOMALY":344.4106,"EPHEMERIS_TYPE":0,"CLASSIFICATION_TYPE":"U","NORAD_CAT_ID":30064,"ELEMENT_SET_NO":999,"REV_AT_EPOCH":99000,"BSTAR":0.00016169,"MEAN_MOTION_DOT":2.73e-6,"MEAN_MOTION_DDOT":0},{"OBJECT_NAME":"FENGYUN 1C DEB","OBJECT_ID":"1999-025PS","EPOCH":"2026-03-29T04:48:05.706720","MEAN_MOTION":13.86962511,"ECCENTRICITY":0.0132031,"INCLINATION":98.7007,"RA_OF_ASC_NODE":58.5779,"ARG_OF_PERICENTER":100.595,"MEAN_ANOMALY":261.0111,"EPHEMERIS_TYPE":0,"CLASSIFICATION_TYPE":"U","NORAD_CAT_ID":30065,"ELEMENT_SET_NO":999,"REV_AT_EPOCH":97147,"BSTAR":0.00018072,"MEAN_MOTION_DOT":1.88e-6,"MEAN_MOTION_DDOT":0},{"OBJECT_NAME":"FENGYUN 1C DEB","OBJECT_ID":"1999-025PT","EPOCH":"2026-03-28T22:28:24.064032","MEAN_MOTION":14.1919473,"ECCENTRICITY":0.0116838,"INCLINATION":98.6447,"RA_OF_ASC_NODE":80.7302,"ARG_OF_PERICENTER":316.134,"MEAN_ANOMALY":96.3974,"EPHEMERIS_TYPE":0,"CLASSIFICATION_TYPE":"U","NORAD_CAT_ID":30066,"ELEMENT_SET_NO":999,"REV_AT_EPOCH":99343,"BSTAR":0.00017846,"MEAN_MOTION_DOT":3.56e-6,"MEAN_MOTION_DDOT":0},{"OBJECT_NAME":"FENGYUN 1C DEB","OBJECT_ID":"1999-025PU","EPOCH":"2026-03-29T05:23:09.316032","MEAN_MOTION":14.44039144,"ECCENTRICITY":0.0151607,"INCLINATION":98.7554,"RA_OF_ASC_NODE":342.4846,"ARG_OF_PERICENTER":59.337,"MEAN_ANOMALY":56.6596,"EPHEMERIS_TYPE":0,"CLASSIFICATION_TYPE":"U","NORAD_CAT_ID":30067,"ELEMENT_SET_NO":999,"REV_AT_EPOCH":732,"BSTAR":0.00041155,"MEAN_MOTION_DOT":1.567e-5,"MEAN_MOTION_DDOT":0},{"OBJECT_NAME":"FENGYUN 1C DEB","OBJECT_ID":"1999-025PV","EPOCH":"2026-03-29T05:05:24.657216","MEAN_MOTION":14.12129531,"ECCENTRICITY":0.0190842,"INCLINATION":98.7483,"RA_OF_ASC_NODE":78.4369,"ARG_OF_PERICENTER":46.0498,"MEAN_ANOMALY":315.6241,"EPHEMERIS_TYPE":0,"CLASSIFICATION_TYPE":"U","NORAD_CAT_ID":30068,"ELEMENT_SET_NO":999,"REV_AT_EPOCH":98846,"BSTAR":0.00023117,"MEAN_MOTION_DOT":4.61e-6,"MEAN_MOTION_DDOT":0},{"OBJECT_NAME":"FENGYUN 1C DEB","OBJECT_ID":"1999-025PW","EPOCH":"2026-03-28T22:31:56.246016","MEAN_MOTION":14.05330188,"ECCENTRICITY":0.0049903,"INCLINATION":98.8159,"RA_OF_ASC_NODE":71.7441,"ARG_OF_PERICENTER":114.1365,"MEAN_ANOMALY":301.4956,"EPHEMERIS_TYPE":0,"CLASSIFICATION_TYPE":"U","NORAD_CAT_ID":30069,"ELEMENT_SET_NO":999,"REV_AT_EPOCH":98338,"BSTAR":0.00017461,"MEAN_MOTION_DOT":2.43e-6,"MEAN_MOTION_DDOT":0},{"OBJECT_NAME":"FENGYUN 1C DEB","OBJECT_ID":"1999-025PX","EPOCH":"2026-03-28T14:39:03.784608","MEAN_MOTION":14.109446,"ECCENTRICITY":0.0324967,"INCLINATION":98.2697,"RA_OF_ASC_NODE":144.1223,"ARG_OF_PERICENTER":14.5821,"MEAN_ANOMALY":138.2414,"EPHEMERIS_TYPE":0,"CLASSIFICATION_TYPE":"U","NORAD_CAT_ID":30070,"ELEMENT_SET_NO":999,"REV_AT_EPOCH":97371,"BSTAR":0.0012516,"MEAN_MOTION_DOT":3.647e-5,"MEAN_MOTION_DDOT":0},{"OBJECT_NAME":"FENGYUN 1C DEB","OBJECT_ID":"1999-025PY","EPOCH":"2026-03-29T00:10:26.021568","MEAN_MOTION":14.54570926,"ECCENTRICITY":0.003972,"INCLINATION":98.6538,"RA_OF_ASC_NODE":195.7456,"ARG_OF_PERICENTER":144.7367,"MEAN_ANOMALY":270.6436,"EPHEMERIS_TYPE":0,"CLASSIFICATION_TYPE":"U","NORAD_CAT_ID":30071,"ELEMENT_SET_NO":999,"REV_AT_EPOCH":99770,"BSTAR":0.0029121,"MEAN_MOTION_DOT":0.00012528,"MEAN_MOTION_DDOT":0},{"OBJECT_NAME":"FENGYUN 1C DEB","OBJECT_ID":"1999-025PZ","EPOCH":"2026-03-28T16:00:47.088288","MEAN_MOTION":14.40101385,"ECCENTRICITY":0.0054066,"INCLINATION":99.0785,"RA_OF_ASC_NODE":247.072,"ARG_OF_PERICENTER":320.8464,"MEAN_ANOMALY":38.8816,"EPHEMERIS_TYPE":0,"CLASSIFICATION_TYPE":"U","NORAD_CAT_ID":30072,"ELEMENT_SET_NO":999,"REV_AT_EPOCH":98694,"BSTAR":0.0025262,"MEAN_MOTION_DOT":8.071e-5,"MEAN_MOTION_DDOT":0},{"OBJECT_NAME":"FENGYUN 1C DEB","OBJECT_ID":"1999-025QA","EPOCH":"2026-03-28T10:39:23.814432","MEAN_MOTION":14.19429555,"ECCENTRICITY":0.00534225,"INCLINATION":99.4209,"RA_OF_ASC_NODE":72.0975,"ARG_OF_PERICENTER":344.1997,"MEAN_ANOMALY":167.1602,"EPHEMERIS_TYPE":0,"CLASSIFICATION_TYPE":"U","NORAD_CAT_ID":30073,"ELEMENT_SET_NO":999,"REV_AT_EPOCH":98424,"BSTAR":0.001640705,"MEAN_MOTION_DOT":3.453e-5,"MEAN_MOTION_DDOT":0},{"OBJECT_NAME":"FENGYUN 1C DEB","OBJECT_ID":"1999-025QB","EPOCH":"2026-03-27T21:52:46.843392","MEAN_MOTION":14.1342849,"ECCENTRICITY":0.0096252,"INCLINATION":99.117,"RA_OF_ASC_NODE":160.1845,"ARG_OF_PERICENTER":214.328,"MEAN_ANOMALY":145.1648,"EPHEMERIS_TYPE":0,"CLASSIFICATION_TYPE":"U","NORAD_CAT_ID":30074,"ELEMENT_SET_NO":999,"REV_AT_EPOCH":98147,"BSTAR":0.0013322,"MEAN_MOTION_DOT":2.571e-5,"MEAN_MOTION_DDOT":0},{"OBJECT_NAME":"FENGYUN 1C DEB","OBJECT_ID":"1999-025QC","EPOCH":"2026-03-29T02:14:43.761120","MEAN_MOTION":13.92574043,"ECCENTRICITY":0.0089989,"INCLINATION":99.3415,"RA_OF_ASC_NODE":144.418,"ARG_OF_PERICENTER":250.1397,"MEAN_ANOMALY":138.929,"EPHEMERIS_TYPE":0,"CLASSIFICATION_TYPE":"U","NORAD_CAT_ID":30075,"ELEMENT_SET_NO":999,"REV_AT_EPOCH":97545,"BSTAR":0.00019191,"MEAN_MOTION_DOT":2.09e-6,"MEAN_MOTION_DDOT":0},{"OBJECT_NAME":"FENGYUN 1C DEB","OBJECT_ID":"1999-025QD","EPOCH":"2026-03-28T22:52:09.706368","MEAN_MOTION":13.76375619,"ECCENTRICITY":0.0174794,"INCLINATION":99.2509,"RA_OF_ASC_NODE":76.6392,"ARG_OF_PERICENTER":173.5644,"MEAN_ANOMALY":212.2025,"EPHEMERIS_TYPE":0,"CLASSIFICATION_TYPE":"U","NORAD_CAT_ID":30076,"ELEMENT_SET_NO":999,"REV_AT_EPOCH":96355,"BSTAR":0.00025777,"MEAN_MOTION_DOT":2.39e-6,"MEAN_MOTION_DDOT":0},{"OBJECT_NAME":"FENGYUN 1C DEB","OBJECT_ID":"1999-025QE","EPOCH":"2026-03-29T00:01:49.035936","MEAN_MOTION":14.07095502,"ECCENTRICITY":0.0020821,"INCLINATION":98.7531,"RA_OF_ASC_NODE":105.3164,"ARG_OF_PERICENTER":327.6828,"MEAN_ANOMALY":85.8191,"EPHEMERIS_TYPE":0,"CLASSIFICATION_TYPE":"U","NORAD_CAT_ID":30077,"ELEMENT_SET_NO":999,"REV_AT_EPOCH":98607,"BSTAR":4.2138e-5,"MEAN_MOTION_DOT":2.8e-7,"MEAN_MOTION_DDOT":0},{"OBJECT_NAME":"FENGYUN 1C DEB","OBJECT_ID":"1999-025QF","EPOCH":"2026-03-29T04:55:09.720768","MEAN_MOTION":14.23906839,"ECCENTRICITY":0.0048867,"INCLINATION":98.8234,"RA_OF_ASC_NODE":168.4359,"ARG_OF_PERICENTER":334.0645,"MEAN_ANOMALY":87.9947,"EPHEMERIS_TYPE":0,"CLASSIFICATION_TYPE":"U","NORAD_CAT_ID":30078,"ELEMENT_SET_NO":999,"REV_AT_EPOCH":98628,"BSTAR":0.0019932,"MEAN_MOTION_DOT":4.582e-5,"MEAN_MOTION_DDOT":0}]
